ASTROCAST-0403          
1 55111U 23001DG  26068.82333059  .00013959  00000+0  51317-3 0  9990
2 55111  97.5604 161.3228 0004771 338.0704  22.0330 15.28004949129377
STARLINK-36188          
1 67122U 25299W   26068.30350670  .00071457  00000+0  25103-2 0  9997
2 67122  43.0019 171.4824 0001202 159.1817 200.9084 15.28492358 13050
